*******************************************************************************
Ephemeris / WWW_USER Fri Mar  7 10:21:11 2025 Pasadena, USA      / Horizons    
*******************************************************************************
Target body name: (2018 RC)                       {source: JPL#21}
Center body name: Earth (399)                     {source: DE441}
Center-site name: Mauna Kea
*******************************************************************************
Start time      : A.D. 2019-Jan-05 04:06:00.0000 UT      
Stop  time      : A.D. 2019-Jan-05 16:47:00.0000 UT      
Step-size       : 1 minutes
*******************************************************************************
Target pole/equ : undefined
Target radii    : undefined                                                    
Center geodetic : 204.5278, 19.8260847, 4.21024   {E-lon(deg),Lat(deg),Alt(km)}
Center cylindric: 204.5278, 6006.35451, 2151.0229 {E-lon(deg),Dxy(km),Dz(km)}
Center pole/equ : ITRF93                          {East-longitude positive}
Center radii    : 6378.137, 6378.137, 6356.752 km {Equator_a, b, pole_c}       
Target primary  : Sun
Vis. interferer : MOON (R_eq= 1737.400) km        {source: DE441}
Rel. light bend : Sun                             {source: DE441}
Rel. lght bnd GM: 1.3271E+11 km^3/s^2                                          
Small-body perts: Yes                             {source: SB441-N16}
Atmos refraction: NO (AIRLESS)
RA format       : HMS
Time format     : CAL 
Calendar mode   : Mixed Julian/Gregorian
RTS-only print  : NO       
EOP file        : eop.250306.p250602                                           
EOP coverage    : DATA-BASED 1962-JAN-20 TO 2025-MAR-06. PREDICTS-> 2025-JUN-01
Units conversion: 1 au= 149597870.700 km, c= 299792.458 km/s, 1 day= 86400.0 s 
Table cut-offs 1: Elevation (-90.0deg=NO ),Airmass (>38.000=NO), Daylight (YES)
Table cut-offs 2: Solar elongation (  0.0,180.0=NO ),Local Hour Angle( 0.0=NO )
Table cut-offs 3: RA/DEC angular rate (     0.0=NO )                           
*******************************************************************************
Initial IAU76/J2000 heliocentric ecliptic osculating elements (au, days, deg.):
  EPOCH=  2458369.5 ! 2018-Sep-08.00 (TDB)         Residual RMS= .84866        
   EC= .2426621660028976   QR= .647471518312811    TP= 2458473.8617576878      
   OM= 346.8893436915528   W=  145.8737085184167   IN= 1.612045057594462       
  Equivalent ICRF heliocentric cartesian coordinates (au, au/d):
   X= 9.781363708094483E-01  Y=-2.377942828764822E-01  Z=-1.040448782093900E-01
  VX= 1.501011538102481E-03 VY= 1.393070215815854E-02 VZ= 6.509326736836346E-03
Asteroid physical parameters (km, seconds, rotational period in hours):        
   GM= n.a.                RAD= n.a.               ROTPER= .16548              
   H= 24.93                G= .150                 B-V= n.a.                   
                           ALBEDO= n.a.            STYP= n.a.                  
*******************************************************************************
 Date__(UT)__HR:MN     R.A._________(ICRF)_________DEC
******************************************************
$$SOE
 2019-Jan-05 12:18     15 47 42.725384 -19 44 43.74767
 2019-Jan-05 12:19     15 47 42.890112 -19 44 44.40740
 2019-Jan-05 12:20     15 47 43.054826 -19 44 45.06714
 2019-Jan-05 12:21     15 47 43.219527 -19 44 45.72689
 2019-Jan-05 12:22     15 47 43.384215 -19 44 46.38663
 2019-Jan-05 12:23     15 47 43.548890 -19 44 47.04639
 2019-Jan-05 12:24     15 47 43.713551 -19 44 47.70614
 2019-Jan-05 12:25     15 47 43.878200 -19 44 48.36590
 2019-Jan-05 12:26     15 47 44.042835 -19 44 49.02566
 2019-Jan-05 12:27     15 47 44.207457 -19 44 49.68542
 2019-Jan-05 12:28     15 47 44.372066 -19 44 50.34519
 2019-Jan-05 12:29     15 47 44.536661 -19 44 51.00496
 2019-Jan-05 12:30     15 47 44.701243 -19 44 51.66473
 2019-Jan-05 12:31     15 47 44.865812 -19 44 52.32450
 2019-Jan-05 12:32     15 47 45.030368 -19 44 52.98428
 2019-Jan-05 12:33     15 47 45.194910 -19 44 53.64405
 2019-Jan-05 12:34     15 47 45.359439 -19 44 54.30382
 2019-Jan-05 12:35     15 47 45.523955 -19 44 54.96360
 2019-Jan-05 12:36     15 47 45.688457 -19 44 55.62337
 2019-Jan-05 12:37     15 47 45.852946 -19 44 56.28315
 2019-Jan-05 12:38     15 47 46.017422 -19 44 56.94292
 2019-Jan-05 12:39     15 47 46.181885 -19 44 57.60270
 2019-Jan-05 12:40     15 47 46.346334 -19 44 58.26247
 2019-Jan-05 12:41     15 47 46.510769 -19 44 58.92224
 2019-Jan-05 12:42     15 47 46.675191 -19 44 59.58201
 2019-Jan-05 12:43     15 47 46.839600 -19 45 00.24178
 2019-Jan-05 12:44     15 47 47.003996 -19 45 00.90154
 2019-Jan-05 12:45     15 47 47.168378 -19 45 01.56131
 2019-Jan-05 12:46     15 47 47.332747 -19 45 02.22107
 2019-Jan-05 12:47     15 47 47.497102 -19 45 02.88082
 2019-Jan-05 12:48     15 47 47.661444 -19 45 03.54058
 2019-Jan-05 12:49     15 47 47.825772 -19 45 04.20033
 2019-Jan-05 12:50     15 47 47.990087 -19 45 04.86007
 2019-Jan-05 12:51     15 47 48.154389 -19 45 05.51981
 2019-Jan-05 12:52     15 47 48.318677 -19 45 06.17955
 2019-Jan-05 12:53     15 47 48.482951 -19 45 06.83928
 2019-Jan-05 12:54     15 47 48.647213 -19 45 07.49901
 2019-Jan-05 12:55     15 47 48.811460 -19 45 08.15873
 2019-Jan-05 12:56     15 47 48.975695 -19 45 08.81844
 2019-Jan-05 12:57     15 47 49.139916 -19 45 09.47815
 2019-Jan-05 12:58     15 47 49.304123 -19 45 10.13786
 2019-Jan-05 12:59     15 47 49.468317 -19 45 10.79755
 2019-Jan-05 13:00     15 47 49.632497 -19 45 11.45724
 2019-Jan-05 13:01     15 47 49.796664 -19 45 12.11692
 2019-Jan-05 13:02     15 47 49.960818 -19 45 12.77660
 2019-Jan-05 13:03     15 47 50.124958 -19 45 13.43626
 2019-Jan-05 13:04     15 47 50.289084 -19 45 14.09592
 2019-Jan-05 13:05     15 47 50.453197 -19 45 14.75557
 2019-Jan-05 13:06     15 47 50.617297 -19 45 15.41521
 2019-Jan-05 13:07     15 47 50.781383 -19 45 16.07484
 2019-Jan-05 13:08     15 47 50.945455 -19 45 16.73446
 2019-Jan-05 13:09     15 47 51.109514 -19 45 17.39408
 2019-Jan-05 13:10     15 47 51.273560 -19 45 18.05368
 2019-Jan-05 13:11     15 47 51.437592 -19 45 18.71327
 2019-Jan-05 13:12     15 47 51.601610 -19 45 19.37285
 2019-Jan-05 13:13     15 47 51.765615 -19 45 20.03242
 2019-Jan-05 13:14     15 47 51.929607 -19 45 20.69198
 2019-Jan-05 13:15     15 47 52.093585 -19 45 21.35153
 2019-Jan-05 13:16     15 47 52.257549 -19 45 22.01107
 2019-Jan-05 13:17     15 47 52.421501 -19 45 22.67059
 2019-Jan-05 13:18     15 47 52.585438 -19 45 23.33011
 2019-Jan-05 13:19     15 47 52.749362 -19 45 23.98961
 2019-Jan-05 13:20     15 47 52.913273 -19 45 24.64909
 2019-Jan-05 13:21     15 47 53.077170 -19 45 25.30857
 2019-Jan-05 13:22     15 47 53.241054 -19 45 25.96803
 2019-Jan-05 13:23     15 47 53.404924 -19 45 26.62747
 2019-Jan-05 13:24     15 47 53.568781 -19 45 27.28690
 2019-Jan-05 13:25     15 47 53.732624 -19 45 27.94632
 2019-Jan-05 13:26     15 47 53.896454 -19 45 28.60572
 2019-Jan-05 13:27     15 47 54.060270 -19 45 29.26511
 2019-Jan-05 13:28     15 47 54.224073 -19 45 29.92448
 2019-Jan-05 13:29     15 47 54.387863 -19 45 30.58384
 2019-Jan-05 13:30  r  15 47 54.551639 -19 45 31.24318
 2019-Jan-05 13:31     15 47 54.715401 -19 45 31.90251
 2019-Jan-05 13:32     15 47 54.879150 -19 45 32.56182
 2019-Jan-05 13:33     15 47 55.042886 -19 45 33.22111
 2019-Jan-05 13:34     15 47 55.206608 -19 45 33.88038
 2019-Jan-05 13:35     15 47 55.370317 -19 45 34.53964
 2019-Jan-05 13:36     15 47 55.534013 -19 45 35.19888
 2019-Jan-05 13:37     15 47 55.697695 -19 45 35.85810
 2019-Jan-05 13:38     15 47 55.861363 -19 45 36.51730
 2019-Jan-05 13:39     15 47 56.025018 -19 45 37.17649
 2019-Jan-05 13:40     15 47 56.188660 -19 45 37.83565
 2019-Jan-05 13:41     15 47 56.352289 -19 45 38.49480
 2019-Jan-05 13:42     15 47 56.515904 -19 45 39.15393
 2019-Jan-05 13:43     15 47 56.679506 -19 45 39.81304
 2019-Jan-05 13:44     15 47 56.843094 -19 45 40.47212
 2019-Jan-05 13:45     15 47 57.006669 -19 45 41.13119
 2019-Jan-05 13:46     15 47 57.170231 -19 45 41.79024
 2019-Jan-05 13:47     15 47 57.333780 -19 45 42.44926
 2019-Jan-05 13:48     15 47 57.497315 -19 45 43.10827
 2019-Jan-05 13:49     15 47 57.660836 -19 45 43.76725
 2019-Jan-05 13:50     15 47 57.824345 -19 45 44.42621
 2019-Jan-05 13:51     15 47 57.987840 -19 45 45.08515
 2019-Jan-05 13:52     15 47 58.151322 -19 45 45.74407
 2019-Jan-05 13:53     15 47 58.314791 -19 45 46.40296
 2019-Jan-05 13:54     15 47 58.478247 -19 45 47.06184
 2019-Jan-05 13:55     15 47 58.641689 -19 45 47.72068
 2019-Jan-05 13:56     15 47 58.805118 -19 45 48.37951
 2019-Jan-05 13:57     15 47 58.968534 -19 45 49.03831
 2019-Jan-05 13:58     15 47 59.131936 -19 45 49.69709
 2019-Jan-05 13:59     15 47 59.295326 -19 45 50.35584
 2019-Jan-05 14:00     15 47 59.458702 -19 45 51.01457
 2019-Jan-05 14:01     15 47 59.622065 -19 45 51.67327
 2019-Jan-05 14:02     15 47 59.785415 -19 45 52.33195
 2019-Jan-05 14:03     15 47 59.948752 -19 45 52.99060
 2019-Jan-05 14:04     15 48 00.112075 -19 45 53.64923
 2019-Jan-05 14:05     15 48 00.275386 -19 45 54.30783
 2019-Jan-05 14:06     15 48 00.438684 -19 45 54.96640
 2019-Jan-05 14:07     15 48 00.601968 -19 45 55.62495
 2019-Jan-05 14:08     15 48 00.765239 -19 45 56.28347
 2019-Jan-05 14:09     15 48 00.928498 -19 45 56.94196
 2019-Jan-05 14:10     15 48 01.091743 -19 45 57.60042
 2019-Jan-05 14:11     15 48 01.254975 -19 45 58.25886
 2019-Jan-05 14:12     15 48 01.418195 -19 45 58.91727
 2019-Jan-05 14:13     15 48 01.581401 -19 45 59.57565
 2019-Jan-05 14:14     15 48 01.744594 -19 46 00.23400
 2019-Jan-05 14:15     15 48 01.907775 -19 46 00.89233
 2019-Jan-05 14:16     15 48 02.070942 -19 46 01.55062
 2019-Jan-05 14:17     15 48 02.234097 -19 46 02.20888
 2019-Jan-05 14:18     15 48 02.397238 -19 46 02.86712
 2019-Jan-05 14:19     15 48 02.560367 -19 46 03.52532
 2019-Jan-05 14:20     15 48 02.723483 -19 46 04.18349
